[{"OBJECT_NAME":"NUSTAR","OBJECT_ID":"2012-031A","EPOCH":"2026-03-10T00:00:02.999808","MEAN_MOTION":15.07728841,"ECCENTRICITY":0.00071224,"INCLINATION":6.0266,"RA_OF_ASC_NODE":57.5732,"ARG_OF_PERICENTER":70.6924,"MEAN_ANOMALY":331.0724,"EPHEMERIS_TYPE":0,"CLASSIFICATION_TYPE":"U","NORAD_CAT_ID":38358,"ELEMENT_SET_NO":999,"REV_AT_EPOCH":130,"BSTAR":0.0011080621,"MEAN_MOTION_DOT":0.00018332,"MEAN_MOTION_DDOT":0},{"OBJECT_NAME":"STARLINK-4610","OBJECT_ID":"2022-104Y","EPOCH":"2026-03-09T16:36:46.236384","MEAN_MOTION":15.08834912,"ECCENTRICITY":0.00012248,"INCLINATION":53.2172,"RA_OF_ASC_NODE":234.2353,"ARG_OF_PERICENTER":91.6869,"MEAN_ANOMALY":268.4263,"EPHEMERIS_TYPE":0,"CLASSIFICATION_TYPE":"U","NORAD_CAT_ID":53610,"ELEMENT_SET_NO":999,"REV_AT_EPOCH":19563,"BSTAR":-3.082662e-6,"MEAN_MOTION_DOT":-3.37e-6,"MEAN_MOTION_DDOT":0}]
